{"type": "FeatureCollection", "features": [ {"type": "Feature", "properties": {"norad_id": 57401, "name": "TIANMU-1 09", "group": "weather", "lat": 7.01458913018394, "lon": 49.72399892645215, "alt_km": 479.6087049305788, "timestamp": "2025-12-27T19:21:58.421371+00:00", "meta": {"OBJECT_NAME": "TIANMU-1 09", "OBJECT_ID": "2023-101C", "EPOCH": "2025-12-27T11:28:42.598848", "MEAN_MOTION": 15.28302741, "ECCENTRICITY": 0.000603, "INCLINATION": 97.2804, "RA_OF_ASC_NODE": 50.3041, "ARG_OF_PERICENTER": 43.0152, "MEAN_ANOMALY": 317.1559, "EPHEMERIS_TYPE": 0, "CLASSIFICATION_TYPE": "U", "NORAD_CAT_ID": 57401, "ELEMENT_SET_NO": 999, "REV_AT_EPOCH": 13540, "BSTAR": 0.00030495, "MEAN_MOTION_DOT": 8.34e-05, "MEAN_MOTION_DDOT": 0}, "tle": {"line1": "1 57401U 23101C   25361.47827082  .00008340  00000+0  30495-3 0  9997", "line2": "2 57401  97.2804  50.3041 0006030  43.0152 317.1559 15.28302741135403"}}, "geometry": {"type": "Point", "coordinates": [49.72399892645215, 7.01458913018394]}}, {"type": "Feature", "properties": {"norad_id": 57402, "name": "TIANMU-1 10", "group": "weather", "lat": 1.0983045093482209, "lon": -128.36839060459297, "alt_km": 487.91261426022265, "timestamp": "2025-12-27T19:21:58.421388+00:00", "meta": {"OBJECT_NAME": "TIANMU-1 10", "OBJECT_ID": "2023-101D", "EPOCH": "2025-12-27T12:18:05.012064", "MEAN_MOTION": 15.28295597, "ECCENTRICITY": 0.0007744, "INCLINATION": 97.2884, "RA_OF_ASC_NODE": 51.203, "ARG_OF_PERICENTER": 39.9578, "MEAN_ANOMALY": 320.223, "EPHEMERIS_TYPE": 0, "CLASSIFICATION_TYPE": "U", "NORAD_CAT_ID": 57402, "ELEMENT_SET_NO": 999, "REV_AT_EPOCH": 13540, "BSTAR": 0.00030793, "MEAN_MOTION_DOT": 8.423e-05, "MEAN_MOTION_DDOT": 0}, "tle": {"line1": "1 57402U 23101D   25361.51255801  .00008423  00000+0  30793-3 0  9990", "line2": "2 57402  97.2884  51.2030 0007744  39.9578 320.2230 15.28295597135400"}}, "geometry": {"type": "Point", "coordinates": [-128.36839060459297, 1.0983045093482209]}}, {"type": "Feature", "properties": {"norad_id": 57490, "name": "FENGYUN 3F", "group": "weather", "lat": -25.137846632514325, "lon": 73.97912899267857, "alt_km": 831.7372286436712, "timestamp": "2025-12-27T19:21:58.421403+00:00", "meta": {"OBJECT_NAME": "FENGYUN 3F", "OBJECT_ID": "2023-111A", "EPOCH": "2025-12-27T11:01:47.146944", "MEAN_MOTION": 14.19897462, "ECCENTRICITY": 8.72e-05, "INCLINATION": 98.7064, "RA_OF_ASC_NODE": 69.5142, "ARG_OF_PERICENTER": 117.7207, "MEAN_ANOMALY": 242.4058, "EPHEMERIS_TYPE": 0, "CLASSIFICATION_TYPE": "U", "NORAD_CAT_ID": 57490, "ELEMENT_SET_NO": 999, "REV_AT_EPOCH": 12449, "BSTAR": 6.0853e-05, "MEAN_MOTION_DOT": 8.6e-07, "MEAN_MOTION_DDOT": 0}, "tle": {"line1": "1 57490U 23111A   25361.45957346  .00000086  00000+0  60853-4 0  9992", "line2": "2 57490  98.7064  69.5142 0000872 117.7207 242.4058 14.19897462124496"}}, "geometry": {"type": "Point", "coordinates": [73.97912899267857, -25.137846632514325]}}, {"type": "Feature", "properties": {"norad_id": 58584, "name": "ARKTIKA-M 2", "group": "weather", "lat": 25.13573078872966, "lon": -173.05195384768385, "alt_km": 15135.617258737693, "timestamp": "2025-12-27T19:21:58.421421+00:00", "meta": {"OBJECT_NAME": "ARKTIKA-M 2", "OBJECT_ID": "2023-198A", "EPOCH": "2025-12-27T06:49:37.520256", "MEAN_MOTION": 2.00602128, "ECCENTRICITY": 0.686626, "INCLINATION": 63.2254, "RA_OF_ASC_NODE": 173.3087, "ARG_OF_PERICENTER": 268.0456, "MEAN_ANOMALY": 18.8429, "EPHEMERIS_TYPE": 0, "CLASSIFICATION_TYPE": "U", "NORAD_CAT_ID": 58584, "ELEMENT_SET_NO": 999, "REV_AT_EPOCH": 1487, "BSTAR": 0, "MEAN_MOTION_DOT": 2.38e-06, "MEAN_MOTION_DDOT": 0}, "tle": {"line1": "1 58584U 23198A   25361.28446204  .00000238  00000+0  00000+0 0  9991", "line2": "2 58584  63.2254 173.3087 6866260 268.0456  18.8429  2.00602128 14871"}}, "geometry": {"type": "Point", "coordinates": [-173.05195384768385, 25.13573078872966]}}, {"type": "Feature", "properties": {"norad_id": 58645, "name": "TIANMU-1 11", "group": "weather", "lat": 11.255149278274764, "lon": -157.36010260985904, "alt_km": 491.8029791648987, "timestamp": "2025-12-27T19:21:58.421434+00:00", "meta": {"OBJECT_NAME": "TIANMU-1 11", "OBJECT_ID": "2023-205A", "EPOCH": "2025-12-27T12:19:43.292928", "MEAN_MOTION": 15.2478036, "ECCENTRICITY": 0.0007609, "INCLINATION": 97.3602, "RA_OF_ASC_NODE": 20.8777, "ARG_OF_PERICENTER": 246.9396, "MEAN_ANOMALY": 113.104, "EPHEMERIS_TYPE": 0, "CLASSIFICATION_TYPE": "U", "NORAD_CAT_ID": 58645, "ELEMENT_SET_NO": 999, "REV_AT_EPOCH": 11134, "BSTAR": 0.00026906, "MEAN_MOTION_DOT": 6.604e-05, "MEAN_MOTION_DDOT": 0}, "tle": {"line1": "1 58645U 23205A   25361.51369552  .00006604  00000+0  26906-3 0  9994", "line2": "2 58645  97.3602  20.8777 0007609 246.9396 113.1040 15.24780360111345"}}, "geometry": {"type": "Point", "coordinates": [-157.36010260985904, 11.255149278274764]}}, {"type": "Feature", "properties": {"norad_id": 58646, "name": "TIANMU-1 12", "group": "weather", "lat": 14.402454625894983, "lon": 19.06446026228754, "alt_km": 496.51481770964983, "timestamp": "2025-12-27T19:21:58.421443+00:00", "meta": {"OBJECT_NAME": "TIANMU-1 12", "OBJECT_ID": "2023-205B", "EPOCH": "2025-12-27T13:00:07.753824", "MEAN_MOTION": 15.24668714, "ECCENTRICITY": 0.0006166, "INCLINATION": 97.359, "RA_OF_ASC_NODE": 20.7059, "ARG_OF_PERICENTER": 224.5189, "MEAN_ANOMALY": 135.5554, "EPHEMERIS_TYPE": 0, "CLASSIFICATION_TYPE": "U", "NORAD_CAT_ID": 58646, "ELEMENT_SET_NO": 999, "REV_AT_EPOCH": 11133, "BSTAR": 0.00030865, "MEAN_MOTION_DOT": 7.56e-05, "MEAN_MOTION_DDOT": 0}, "tle": {"line1": "1 58646U 23205B   25361.54175641  .00007560  00000+0  30865-3 0  9993", "line2": "2 58646  97.3590  20.7059 0006166 224.5189 135.5554 15.24668714111338"}}, "geometry": {"type": "Point", "coordinates": [19.06446026228754, 14.402454625894983]}}, {"type": "Feature", "properties": {"norad_id": 58647, "name": "TIANMU-1 13", "group": "weather", "lat": -12.944749605036098, "lon": -160.5291800823879, "alt_km": 491.59702324715636, "timestamp": "2025-12-27T19:21:58.421454+00:00", "meta": {"OBJECT_NAME": "TIANMU-1 13", "OBJECT_ID": "2023-205C", "EPOCH": "2025-12-27T12:13:19.739136", "MEAN_MOTION": 15.24711477, "ECCENTRICITY": 0.0006872, "INCLINATION": 97.3618, "RA_OF_ASC_NODE": 20.8812, "ARG_OF_PERICENTER": 203.573, "MEAN_ANOMALY": 156.5194, "EPHEMERIS_TYPE": 0, "CLASSIFICATION_TYPE": "U", "NORAD_CAT_ID": 58647, "ELEMENT_SET_NO": 999, "REV_AT_EPOCH": 11132, "BSTAR": 0.00027583, "MEAN_MOTION_DOT": 6.757e-05, "MEAN_MOTION_DDOT": 0}, "tle": {"line1": "1 58647U 23205C   25361.50925624  .00006757  00000+0  27583-3 0  9994", "line2": "2 58647  97.3618  20.8812 0006872 203.5730 156.5194 15.24711477111328"}}, "geometry": {"type": "Point", "coordinates": [-160.5291800823879, -12.944749605036098]}}, {"type": "Feature", "properties": {"norad_id": 58648, "name": "TIANMU-1 14", "group": "weather", "lat": -74.98628075640863, "lon": 49.29884091486699, "alt_km": 497.64665628244165, "timestamp": "2025-12-27T19:21:58.421464+00:00", "meta": {"OBJECT_NAME": "TIANMU-1 14", "OBJECT_ID": "2023-205D", "EPOCH": "2025-12-27T13:24:10.052352", "MEAN_MOTION": 15.24694737, "ECCENTRICITY": 0.0007562, "INCLINATION": 97.355, "RA_OF_ASC_NODE": 20.2646, "ARG_OF_PERICENTER": 209.4616, "MEAN_ANOMALY": 150.6197, "EPHEMERIS_TYPE": 0, "CLASSIFICATION_TYPE": "U", "NORAD_CAT_ID": 58648, "ELEMENT_SET_NO": 999, "REV_AT_EPOCH": 11133, "BSTAR": 0.00028832, "MEAN_MOTION_DOT": 7.064e-05, "MEAN_MOTION_DDOT": 0}, "tle": {"line1": "1 58648U 23205D   25361.55844968  .00007064  00000+0  28832-3 0  9991", "line2": "2 58648  97.3550  20.2646 0007562 209.4616 150.6197 15.24694737111336"}}, "geometry": {"type": "Point", "coordinates": [49.29884091486699, -74.98628075640863]}}, {"type": "Feature", "properties": {"norad_id": 58660, "name": "TIANMU-1 19", "group": "weather", "lat": 1.2702054811173575, "lon": 112.65051019473486, "alt_km": 487.7000890222798, "timestamp": "2025-12-27T19:21:58.421473+00:00", "meta": {"OBJECT_NAME": "TIANMU-1 19", "OBJECT_ID": "2023-208A", "EPOCH": "2025-12-27T13:04:27.809184", "MEAN_MOTION": 15.28125464, "ECCENTRICITY": 0.0004974, "INCLINATION": 97.4383, "RA_OF_ASC_NODE": 112.5548, "ARG_OF_PERICENTER": 191.6541, "MEAN_ANOMALY": 168.4584, "EPHEMERIS_TYPE": 0, "CLASSIFICATION_TYPE": "U", "NORAD_CAT_ID": 58660, "ELEMENT_SET_NO": 999, "REV_AT_EPOCH": 11108, "BSTAR": 0.00040029, "MEAN_MOTION_DOT": 0.0001091, "MEAN_MOTION_DDOT": 0}, "tle": {"line1": "1 58660U 23208A   25361.54476631  .00010910  00000+0  40029-3 0  9991", "line2": "2 58660  97.4383 112.5548 0004974 191.6541 168.4584 15.28125464111083"}}, "geometry": {"type": "Point", "coordinates": [112.65051019473486, 1.2702054811173575]}}, {"type": "Feature", "properties": {"norad_id": 58661, "name": "TIANMU-1 20", "group": "weather", "lat": 39.485775283569374, "lon": -60.54676186651998, "alt_km": 472.8282050848502, "timestamp": "2025-12-27T19:21:58.421482+00:00", "meta": {"OBJECT_NAME": "TIANMU-1 20", "OBJECT_ID": "2023-208B", "EPOCH": "2025-12-27T12:28:27.001344", "MEAN_MOTION": 15.29316027, "ECCENTRICITY": 0.0006978, "INCLINATION": 97.4321, "RA_OF_ASC_NODE": 112.992, "ARG_OF_PERICENTER": 205.6133, "MEAN_ANOMALY": 154.4763, "EPHEMERIS_TYPE": 0, "CLASSIFICATION_TYPE": "U", "NORAD_CAT_ID": 58661, "ELEMENT_SET_NO": 999, "REV_AT_EPOCH": 11115, "BSTAR": 0.00039745, "MEAN_MOTION_DOT": 0.00011239, "MEAN_MOTION_DDOT": 0}, "tle": {"line1": "1 58661U 23208B   25361.51975696  .00011239  00000+0  39745-3 0  9992", "line2": "2 58661  97.4321 112.9920 0006978 205.6133 154.4763 15.29316027111153"}}, "geometry": {"type": "Point", "coordinates": [-60.54676186651998, 39.485775283569374]}}]}